[{"OBJECT_NAME":"ONEWEB-0204","OBJECT_ID":"2021-031R","EPOCH":"2026-03-09T16:13:59.804832","MEAN_MOTION":13.14503361,"ECCENTRICITY":0.00014865,"INCLINATION":87.8989,"RA_OF_ASC_NODE":309.5574,"ARG_OF_PERICENTER":71.2763,"MEAN_ANOMALY":288.8528,"EPHEMERIS_TYPE":0,"CLASSIFICATION_TYPE":"U","NORAD_CAT_ID":48225,"ELEMENT_SET_NO":999,"REV_AT_EPOCH":23518,"BSTAR":-4.5873934e-5,"MEAN_MOTION_DOT":-4.0e-8,"MEAN_MOTION_DDOT":0},{"OBJECT_NAME":"UNKNOWN","OBJECT_ID":"","EPOCH":"2026-03-06T09:35:38.016384","MEAN_MOTION":13.23147973,"ECCENTRICITY":0.01508445,"INCLINATION":100.3415,"RA_OF_ASC_NODE":127.8689,"ARG_OF_PERICENTER":310.4646,"MEAN_ANOMALY":48.3401,"EPHEMERIS_TYPE":0,"CLASSIFICATION_TYPE":"U","NORAD_CAT_ID":270073,"ELEMENT_SET_NO":999,"REV_AT_EPOCH":30272,"BSTAR":0.0019679922,"MEAN_MOTION_DOT":8.36e-6,"MEAN_MOTION_DDOT":0}]
